{
"type": "FeatureCollection",
"name": "hotspot_polygons",
"crs": { "type": "name", "properties": { "name": "urn:ogc:def:crs:OGC:1.3:CRS84" } },
"features": [
{ "type": "Feature", "properties": { "cluster_id": 0 }, "geometry": { "type": "Polygon", "coordinates": [ [ [ -84.386127108998281, 33.843759139103454 ], [ -84.394864521828922, 33.859903262306837 ], [ -84.374767978262284, 33.856346710794185 ], [ -84.377707013567374, 33.846391688062319 ], [ -84.386127108998281, 33.843759139103454 ] ] ] } },
{ "type": "Feature", "properties": { "cluster_id": 2 }, "geometry": { "type": "Polygon", "coordinates": [ [ [ -84.354476332790327, 33.73550954036628 ], [ -84.365092438851406, 33.742080137408792 ], [ -84.340772108593598, 33.74078364963178 ], [ -84.354476332790327, 33.73550954036628 ] ] ] } },
{ "type": "Feature", "properties": { "cluster_id": 1 }, "geometry": { "type": "Polygon", "coordinates": [ [ [ -84.394721566743556, 33.76546272666139 ], [ -84.399512437661073, 33.776356409830271 ], [ -84.391639701215809, 33.781125270094925 ], [ -84.385243723786573, 33.774405460545545 ], [ -84.386585131051106, 33.765876040816913 ], [ -84.394721566743556, 33.76546272666139 ] ] ] } }
]
}
